OBJECT_NAME,OBJECT_ID,EPOCH,MEAN_MOTION,ECCENTRICITY,INCLINATION,RA_OF_ASC_NODE,ARG_OF_PERICENTER,MEAN_ANOMALY,EPHEMERIS_TYPE,CLASSIFICATION_TYPE,NORAD_CAT_ID,ELEMENT_SET_NO,REV_AT_EPOCH,BSTAR,MEAN_MOTION_DOT,MEAN_MOTION_DDOT
DMSP 5D-3 F16 (USA 172),2003-048A,2026-06-16T21:26:28.080384,14.14483161,.0007749,98.9890,191.7198,141.0283,339.7595,0,U,28054,999,16944,.12618E-4,-.21E-6,0
METEOSAT-9 (MSG-2),2005-049B,2026-06-16T18:21:52.410816,1.00271877,.0001615,9.3608,54.1728,343.7501,188.2137,0,U,28912,999,699,0,.116E-5,0
DMSP 5D-3 F17 (USA 191),2006-050A,2026-06-16T19:35:14.477856,14.14993040,.0011178,98.7378,174.3938,60.3787,299.8499,0,U,29522,999,1237,.19417E-4,-.6E-7,0
FENGYUN 3A,2008-026A,2026-06-16T18:22:10.191072,14.19571060,.0009574,98.6883,108.6064,124.7763,235.4315,0,U,32958,999,93534,.44318E-4,.5E-6,0
GOES 14,2009-033A,2026-06-16T18:49:22.482336,1.00110913,.0001742,1.6895,83.0460,11.3319,235.0763,0,U,35491,999,658,0,-.293E-5,0
DMSP 5D-3 F18 (USA 210),2009-057A,2026-06-16T20:35:49.401024,14.14896590,.0009891,98.9037,148.6280,250.5797,109.4307,0,U,35951,999,85954,.1372E-3,.22E-5,0
EWS-G2 (GOES 15),2010-008A,2026-06-16T18:26:59.421120,1.00275891,.0005405,1.2770,82.8674,42.2597,120.3736,0,U,36411,999,5963,0,.14E-6,0
COMS 1,2010-032A,2026-06-16T18:30:14.108832,0.99162490,.0011483,4.8043,75.3592,11.8077,170.5357,0,U,36744,999,5108,0,.53E-6,0
FENGYUN 3B,2010-059A,2026-06-16T21:38:01.161312,14.14840425,.002188,98.9619,213.9146,184.7596,348.0356,0,U,37214,999,80738,-.12234E-3,-.282E-5,0
SUOMI NPP,2011-061A,2026-06-16T20:19:52.979808,14.19517265,.0001554,98.7953,108.7255,7.5604,352.5595,0,U,37849,999,75839,.42306E-4,.45E-6,0
METEOSAT-10 (MSG-3),2012-035B,2026-06-15T21:37:03.141984,1.00276584,.00014525,4.6688,61.0268,328.0735,199.6782,0,U,38552,999,5084,0,-.6E-7,0
METOP-B,2012-049A,2026-06-16T20:06:14.546304,14.21432669,.0002259,98.6505,219.3438,20.6024,339.5244,0,U,38771,999,71321,.62281E-4,.93E-6,0
INSAT-3D,2013-038B,2026-06-16T18:45:45.328032,1.00269313,.000056,1.9255,82.5442,311.3198,282.1305,0,U,39216,999,4707,0,-.343E-5,0
FENGYUN 3C,2013-052A,2026-06-16T19:57:47.023200,14.15754894,.0015278,98.4986,141.7229,28.5931,331.6079,0,U,39260,999,65851,.48557E-4,.54E-6,0
METEOR-M 2,2014-037A,2026-06-16T20:44:13.352352,14.21460245,.000676,98.5109,143.6137,45.4754,314.6975,0,U,40069,999,61927,-.88867E-4,-.236E-5,0
HIMAWARI-8,2014-060A,2026-06-16T18:49:00.018336,1.00271710,.0000992,0.0158,359.9150,89.2732,238.7759,0,U,40267,999,4275,0,-.278E-5,0
FENGYUN 2G,2014-090A,2026-06-16T18:37:16.141728,1.00272344,.0004095,5.6375,72.8180,156.3445,54.8771,0,U,40367,999,4199,0,-.308E-5,0
METEOSAT-11 (MSG-4),2015-034A,2026-06-16T18:11:38.091264,1.00280240,.0001751,3.2002,71.1126,11.1942,105.2805,0,U,40732,999,721,0,.61E-6,0
ELEKTRO-L 2,2015-074A,2026-06-16T15:18:31.243968,1.00270425,.0000972,6.6931,70.5258,242.2635,167.2330,0,U,41105,999,3850,0,-.124E-5,0
SENTINEL-3A,2016-011A,2026-06-16T20:46:54.212736,14.26739891,.0001402,98.6249,235.2542,102.2979,257.8359,0,U,41335,999,53801,.53907E-4,.87E-6,0
INSAT-3DR,2016-054A,2026-06-16T16:47:15.752832,1.00270862,.001061,0.1054,86.4163,187.4266,316.9088,0,U,41752,999,3581,0,-.79E-6,0
HIMAWARI-9,2016-064A,2026-06-16T18:49:00.018336,1.00270813,.0000894,0.0197,277.3882,213.8870,196.7861,0,U,41836,999,3520,0,-.277E-5,0
GOES 16,2016-071A,2026-06-16T15:56:24.222336,1.00270961,.0000218,0.3404,85.5183,303.9999,9.8198,0,U,41866,999,3509,0,-.93E-6,0
FENGYUN 4A,2016-077A,2026-06-16T18:44:07.984608,1.00268694,.0008713,2.3211,80.2786,153.3989,76.1610,0,U,41882,999,3492,0,-.361E-5,0
CYGFM05,2016-078A,2026-06-16T14:27:15.431616,15.56650505,.0006927,34.9568,264.4637,145.3362,214.7815,0,U,41884,999,52866,.25356E-3,.18684E-3,0
CYGFM04,2016-078B,2026-06-16T13:47:32.758080,15.61485848,.0006598,34.9314,232.3673,189.8115,170.2483,0,U,41885,999,52890,.26669E-3,.23651E-3,0
CYGFM02,2016-078C,2026-06-16T13:50:13.214976,15.64470617,.0007626,34.9393,226.9084,190.6958,169.3607,0,U,41886,999,52907,.27656E-3,.27611E-3,0
CYGFM01,2016-078D,2026-06-16T15:43:41.070144,15.57329199,.000671,34.9397,265.1736,139.4098,220.7127,0,U,41887,999,52862,.26456E-3,.20003E-3,0
CYGFM08,2016-078E,2026-06-16T14:46:39.125568,15.59994653,.0008283,34.9423,245.0304,171.8547,188.2313,0,U,41888,999,52888,.26707E-3,.22367E-3,0
CYGFM07,2016-078G,2026-06-16T13:47:51.837792,15.60091379,.000703,34.9435,233.6447,188.5559,171.5048,0,U,41890,999,52890,.25608E-3,.21512E-3,0
CYGFM03,2016-078H,2026-06-16T20:46:50.149344,15.60098311,.0006493,34.9390,233.6449,179.3164,180.7571,0,U,41891,999,52892,.28178E-3,.23685E-3,0
